#dP2020  9 21  0  0  0.00000000      96 __u+U ITR00 FIT  IAC
## 2124  86400.00000000   900.00000000 59113 0.0000000000000
+  115   C01C02C03C04C05C06C07C08C09C10C11C12C13C14C16C19C20
+        C21C22C23C24C25C26C27C28C29C30C32C33C34C35C36C37C39
+        C60E01E02E03E04E05E07E08E09E11E12E13E14E15E18E19E21
+        E24E25E26E27E30E31E33E36G01G02G03G04G05G06G07G08G09
+        G10G11G12G13G15G16G17G18G19G20G21G22G24G25G26G27G28
+        G29G30G31G32J01J02J03J07R01R02R03R04R05R07R08R11R12
+        R13R14R15R16R17R18R19R20R21R22R23R24R26  0  0  0  0
++        12 12 13 12 12  9  8  8  8  8  8  8  8  8  8  7  8
++         8  8  8  8  8  8  7  7  8  7  8  8  8  8  8  8 10
++         0  4  4  4  5  4  5  4  5  4  5  5  4  5  4  4  5
++         5  4  5  5  4  5  5  4  3  3  3  4  4  3  4  3  3
++         3  4  3  4  4  4  3  3  3  4  4  3  3  3  3  3  3
++         4  3  3  3  8  8  8 13  6  5  5  6  6  5  6  6  6
++         6  5  5  6  5  5  6  6  5  6  5  5  8  0  0  0  0
%c M  cc GPS ccc cccc cccc cccc cccc ccccc ccccc ccccc ccccc
%c cc cc ccc ccc cccc cccc cccc cccc ccccc ccccc ccccc ccccc
%f  0.0000000  0.000000000  0.00000000000  0.000000000000000
%f  0.0000000  0.000000000  0.00000000000  0.000000000000000
%i    0    0    0    0      0      0      0      0         0
%i    0    0    0    0      0      0      0      0         0
/* INFORMATION & ANALYSIS CENTER (IAC)            RAPID DATA
/* S/V CLOCKS ARE ALIGNED TO GNSS TIME                      
/* G:C1WC2W R:C1PC2P E:C1XC5X C:C2IC6I J:C1CC2S             
/* PCV:IGS14_2118 OL/AL:FES2004  NONE     YN ORB:CoN CLK:CoN
*  2020 09 21 13  0  0.00000000
PC01 -34342.905558  24498.071569    369.806976   -118.072114
PC02   4416.702956  41921.824737   -243.080479    821.751070
PC03 -14725.661391  39517.272365  -1054.045970    796.695923
PC04 -39624.415316  14474.712161   -621.714399    226.115540
PC05  21934.233726  36002.395205    -94.918137   -287.293544
PC06 -22789.473861  24611.467025  25689.641853      7.317900
PC07 -16120.925148  37935.083756  10333.775142    -31.771762
PC08  -6578.605667  22547.329440 -34865.335086   -542.882605
PC09  -7276.129562  25452.276175  32994.544185    824.280047
PC10  -6107.892452  41874.762593  -2525.229008   -181.601004
PC11 -27934.763951    475.463184    242.782862   -635.087397
PC12 -19956.829209 -10268.713046  16640.406437    520.150947
PC13   6362.251787  30867.106555 -27781.930403    658.116780
PC14 -18540.424459   5206.332018 -20196.846178    193.812291
PC16 -19366.724781  25029.183204  27844.343666   -590.250937
PC19  18807.899829 -14770.575452  14385.460214    554.217043
PC20  15668.945667   4033.615521  22741.962921   -846.187370
PC21  -3026.641798 -21197.116871 -17874.847659   -681.766664
PC22  11123.407107 -25445.283094  -2587.474799   -766.860848
PC23  -2482.144594  20831.013931  18417.871141   -869.233501
PC24 -19990.827873 -14522.231069  12996.188451   -725.874001
PC25 -15618.599162   5383.648434  22494.041170   -764.407703
PC26 -13371.461931 -24313.507395  -3133.067404    838.473771
PC27  10609.535941  14487.227663 -21381.494434    402.720805
PC28 -10832.481963  14806.191279 -21030.727765   -167.564954
PC29  25548.266629  -7452.001674   8382.009606    286.894907
PC30  25767.357159   4957.326589  -9522.134178    378.881003
PC32   3175.020618  21212.582735  17863.648955   -905.317279
PC33 -18759.419511  14817.827762 -14412.830472   -799.892316
PC34 -25984.293537  -4691.440699   8999.512201   -849.638196
PC35  10573.551795 -15179.039761  20898.197540   -643.737664
PC36  15852.794853  -4750.437214 -22435.755309   -911.763560
PC37  12301.979155  24744.546445   3860.399267   -919.428795
PC39 -16915.525925  26328.264199  28209.120288     22.721521
PC60      0.000000      0.000000      0.000000 999999.999999
PE01 -16295.955391   2460.965123  24597.580108   -945.405033
PE02  16270.244238  -2595.577939 -24582.506262    163.257453
PE03  25755.858913  -9075.928868  11396.208354   -345.295898
PE04 -19933.674368  20803.577350   6796.602754   -611.599139
PE05  16554.098367   8131.627346  23149.107644   -344.263359
PE07   2224.520288 -20438.482669 -21288.518233   -438.883707
PE08  19651.642370 -20966.317066  -7068.322968   6117.510937
PE09  -2081.149060  20320.298586  21429.486266   5923.707794
PE11   8616.294775  18760.967646 -21223.627526   5669.475735
PE12 -13221.841356  11457.266695 -23877.835055   5594.572205
PE13  -8428.449939 -18637.156402  21399.279903    403.812161
PE14 -19285.984687  19611.168220 -14823.100505  -1163.597679
PE15  12974.815782 -11543.803687  23971.887599    851.638097
PE18  22474.557591 -11094.546292   4254.452323  -1271.453371
PE19 -25419.951201   7326.632566 -13278.684513     83.999586
PE21 -14330.169744 -18589.281041  18041.113231   -622.618602
PE24   3523.867158  29377.856867   -393.360686   5232.446109
PE25  14263.494467  18741.757028 -17916.061008   -516.965510
PE26 -25052.783968 -14713.008279   5702.376478   2700.957114
PE27  -3958.672397 -29325.093745    821.369956    129.461164
PE30   9143.375028 -22324.483911 -17156.844590   3566.904559
PE31  -8701.156730  22767.304085  16815.001587   -474.281381
PE33 -26754.833955  -2341.933567 -12447.944945   -462.712910
PE36  24865.290252  14780.971170  -6260.809986    504.558480
PG01  22117.263474  14717.206064   2803.240546     35.716474
PG02  -9144.291099 -19511.900470  16193.153633   -519.435320
PG03  13130.876316  10078.128257  20714.244819   -305.258376
PG04  21566.440042   3158.009588  15210.063432   -137.216502
PG05  -2949.339103 -25263.032667  -7457.766327    -21.608025
PG06   5438.034493 -14207.126118  21819.634833   -327.514012
PG07  20831.869690   1437.979983 -16364.833477   -377.249519
PG08  13149.131514   9892.649659 -20893.552815    -48.757192
PG09  25091.598379  -7104.054256   5025.591688   -289.268521
PG10 -11631.451864  19699.458235 -13186.900003   -460.320339
PG11  20459.200893  12581.824386 -11421.156800   -158.192216
PG12 -11393.636572 -12636.942339  20201.425588     64.291227
PG13  -3603.333539 -14676.719886 -21967.147035     47.374098
PG15 -15166.264253  -8958.174566 -20310.075048   -202.165756
PG16   1388.413058  24494.444186  -9790.199465   -212.068473
PG17  18561.772876 -15016.110036  12020.172717    329.087082
PG18 -19924.411786   -301.591437 -17596.975447    294.178073
PG19  13096.676129 -15608.781853  16710.153385   -101.945935
PG20 -14861.469238   8652.448927 -20260.614700    526.666043
PG21   9755.292918  19168.645681 -15069.291759     49.549174
PG22  11610.859844  17569.002157  16471.599354   -752.072177
PG24 -22033.404751 -15196.432604   -649.686403    -18.824775
PG25 -15156.179636    540.169530  21551.265496     52.303701
PG26  -5118.819624  25635.769664   3881.119457    282.547079
PG27   1032.128252  15426.084947 -21697.723711   -400.783168
PG28  12288.448201 -20539.358843 -11096.249195    676.349374
PG29 -25182.845925   2975.184098   7944.677286   -199.444373
PG30  14141.880296  -8261.922563 -20888.589531   -305.885529
PG31  -4268.198186  15531.997142  20988.025552    -70.100637
PG32 -17157.302365  16406.598480  11839.785330    348.962396
PJ01 -26273.260027  32403.981746  -1654.589610   -345.425186
PJ02 -25703.861105  24020.508440  28114.163381     -4.000355
PJ03 -34284.124777  17703.913870 -12412.508955     -1.291536
PJ07 -25413.531536  33652.239398     46.039967      0.069470
PR01  16110.642693 -19650.994947   2141.550574     67.898204
PR02   3854.568633 -18160.480632 -17488.079380    446.573350
PR03  -9682.161179  -5356.493967 -22944.668377     22.415471
PR04 -17414.672507  10480.163655 -15388.140796     55.319639
PR05 -15466.127769  20251.153683    863.623128     57.963884
PR07  10152.829704   4754.737127  22945.202044    -40.272165
PR08  17507.471769 -10385.432892  15431.764158    -54.705307
PR11  11784.777833   -233.851976 -22603.980590    -38.434680
PR12   3177.653427 -16449.170893 -19207.949955    165.597219
PR13  -7515.572135 -23902.891879  -4775.139450    -44.169254
PR14 -13679.334495 -17264.387800  12868.696209     55.772346
PR15 -11906.003087   -758.035989  22573.724059    106.986929
PR16  -2599.314343  17003.042766  18772.110435     -6.539472
PR17 -21482.792291  -8239.332781  11071.313688    359.954353
PR18 -24792.358203  -1107.064358  -5791.913626     50.137700
PR19 -15598.739607   5980.127474 -19284.914987   -112.132158
PR20   5170.731546  11031.085871 -22411.353236   -422.305471
PR21  22000.724056   7913.175610 -10156.665569   -153.711647
PR22  24570.666135    676.308291   6960.839301    -73.916140
PR23   8388.766771  -8837.272568  22397.631886    333.432970
PR24  -5969.877326 -11465.362433  22008.165644     14.094750
PR26   -616.527637  10432.145189 -23258.725199   -360.555050
EOF
